NORAD_CAT_ID,OBJECT_NAME,OBJECT_TYPE,EPOCH,MEAN_MOTION,ECCENTRICITY,INCLINATION,RA_OF_ASC_NODE,ARG_OF_PERICENTER,MEAN_ANOMALY,BSTAR,MEAN_MOTION_DOT,MEAN_MOTION_DDOT,TLE_LINE0,TLE_LINE1,TLE_LINE2,SEMIMAJOR_AXIS,PERIOD,APOGEE,PERIGEE,DECAYED
55305.0,STARLINK-5316,PAYLOAD,2023-10-29 14:41:32,14.98370747,0.0003027,70.0003,38.2516,263.0918,96.9897,0.00039225,4.595e-05,0.0,0 STARLINK-5316,1 55305U 23010AN  23302.61218640  .00004595  00000-0  39225-3 0  9999,2 55305  70.0003  38.2516 0003027 263.0918  96.9897 14.98370747 44147,6950.067,96.104,574.036,569.828,0.0
55305.0,STARLINK-5316,PAYLOAD,2023-10-29 16:17:42,14.98350421,0.0003087,70.0,38.083,267.68,92.4006,0.00011983,1.338e-05,0.0,0 STARLINK-5316,1 55305U 23010AN  23302.67896416  .00001338  00000-0  11983-3 0  9991,2 55305  70.0000  38.0830 0003087 267.6800  92.4006 14.98350421 43832,6950.13,96.106,574.14,569.849,0.0
55305.0,STARLINK-5316,PAYLOAD,2023-10-30 05:06:48,14.98318598,0.000302,70.0002,36.7375,263.3071,96.7744,2.8786e-05,2.5e-06,0.0,0 STARLINK-5316,1 55305U 23010AN  23303.21306609  .00000250  00000-0  28786-4 0  9994,2 55305  70.0002  36.7375 0003020 263.3071  96.7744 14.98318598 43917,6950.228,96.108,574.192,569.994,0.0
55305.0,STARLINK-5316,PAYLOAD,2023-10-30 13:07:29,14.98317405,0.0002962,70.0,35.8955,268.0974,91.9846,-1.2947e-05,-2.47e-06,0.0,0 STARLINK-5316,1 55305U 23010AN  23303.54686988 -.00000247  00000-0 -12947-4 0  9991,2 55305  70.0000  35.8955 0002962 268.0974  91.9846 14.98317405 44284,6950.232,96.108,574.155,570.038,0.0
55305.0,STARLINK-5316,PAYLOAD,2023-10-31 13:09:25,14.98399333,0.0002898,70.0,33.3707,260.0879,99.9953,0.00065994,7.804e-05,0.0,0 STARLINK-5316,1 55305U 23010AN  23304.54820662  .00007804  00000-0  65994-3 0  9994,2 55305  70.0000  33.3707 0002898 260.0879  99.9953 14.98399333 44115,6949.978,96.103,573.858,569.829,0.0
55305.0,STARLINK-5316,PAYLOAD,2023-10-31 14:45:37,14.98335414,0.0002742,70.0,33.2027,263.7534,96.3313,-5.2181e-05,-7.16e-06,0.0,0 STARLINK-5316,1 55305U 23010AN  23304.61502241 -.00000716  00000-0 -52181-4 0  9994,2 55305  70.0000  33.2027 0002742 263.7534  96.3313 14.98335414 44442,6950.176,96.107,573.947,570.135,0.0
55305.0,STARLINK-5316,PAYLOAD,2023-10-31 16:21:45,14.98336455,0.0002807,69.9999,33.0343,265.7946,94.2892,-3.829e-05,-5.5e-06,0.0,0 STARLINK-5316,1 55305U 23010AN  23304.68178119 -.00000550  00000-0 -38290-4 0  9995,2 55305  69.9999  33.0343 0002807 265.7946  94.2892 14.98336455 44137,6950.173,96.107,573.989,570.087,0.0
55305.0,STARLINK-5316,PAYLOAD,2023-11-01 05:10:50,14.98328508,0.0002528,70.0006,31.6877,269.8615,90.2254,6.6182e-06,-1.4e-07,0.0,0 STARLINK-5316,1 55305U 23010AN  23305.21586605 -.00000014  00000-0  66182-5 0  9994,2 55305  70.0006  31.6877 0002528 269.8615  90.2254 14.98328508 44210,6950.198,96.107,573.82,570.305,0.0
55305.0,STARLINK-5316,PAYLOAD,2023-11-01 09:59:16,14.98309559,0.0002695,70.0,31.1828,278.3107,81.7747,-8.5812e-05,-1.116e-05,0.0,0 STARLINK-5316,1 55305U 23010AN  23305.41615969 -.00001116  00000-0 -85812-4 0  9997,2 55305  70.0000  31.1828 0002695 278.3107  81.7747 14.98309559 44241,6950.256,96.108,573.994,570.248,0.0
55305.0,STARLINK-5316,PAYLOAD,2023-11-01 14:47:38,14.9833149,0.0002599,70.0006,30.6773,280.6977,79.389,0.00016769,1.908e-05,0.0,0 STARLINK-5316,1 55305U 23010AN  23305.61642066  .00001908  00000-0  16769-3 0  9998,2 55305  70.0006  30.6773 0002599 280.6977  79.3890 14.98331490 44593,6950.188,96.107,573.86,570.247,0.0
55305.0,STARLINK-5316,PAYLOAD,2023-11-02 14:49:39,14.98332584,0.0002691,70.0002,28.1537,267.4141,92.671,4.1596e-05,4.03e-06,0.0,0 STARLINK-5316,1 55305U 23010AN  23306.61782082  .00000403  00000-0  41596-4 0  9998,2 55305  70.0002  28.1537 0002691 267.4141  92.6710 14.98332584 44749,6950.185,96.107,573.92,570.18,0.0
55305.0,STARLINK-5316,PAYLOAD,2023-11-03 13:15:32,14.98329575,0.0002874,70.0001,25.7972,268.215,91.868,-5.0529e-05,-6.96e-06,0.0,0 STARLINK-5316,1 55305U 23010AN  23307.55246390 -.00000696  00000-0 -50529-4 0  9991,2 55305  70.0001  25.7972 0002874 268.2150  91.8680 14.98329575 44884,6950.194,96.107,574.057,570.062,0.0
55305.0,STARLINK-5316,PAYLOAD,2023-11-03 14:51:40,14.98330632,0.0002842,70.0003,25.629,267.9101,92.1732,-3.967e-05,-5.66e-06,0.0,0 STARLINK-5316,1 55305U 23010AN  23307.61922293 -.00000566  00000-0 -39670-4 0  9991,2 55305  70.0003  25.6290 0002842 267.9101  92.1732 14.98330632 44579,6950.191,96.107,574.031,570.081,0.0
55305.0,STARLINK-5316,PAYLOAD,2023-11-04 11:41:26,14.98318779,0.0002871,70.0004,23.4401,268.7076,91.3754,-0.0001443,-1.814e-05,0.0,0 STARLINK-5316,1 55305U 23010AN  23308.48711459 -.00001814  00000-0 -14430-3 0  9990,2 55305  70.0004  23.4401 0002871 268.7076  91.3754 14.98318779 44700,6950.228,96.108,574.088,570.097,0.0
55305.0,STARLINK-5316,PAYLOAD,2023-11-04 13:17:34,14.98317827,0.0002881,69.9998,23.2709,265.8229,94.26,-0.00014111,-1.776e-05,0.0,0 STARLINK-5316,1 55305U 23010AN  23308.55387559 -.00001776  00000-0 -14111-3 0  9991,2 55305  69.9998  23.2709 0002881 265.8229  94.2600 14.98317827 45039,6950.231,96.108,574.098,570.093,0.0
55305.0,STARLINK-5316,PAYLOAD,2023-11-04 14:53:42,14.98317208,0.0002825,70.0002,23.1035,265.8044,94.2792,-0.00013896,-1.75e-05,0.0,0 STARLINK-5316,1 55305U 23010AN  23308.62063649 -.00001750  00000-0 -13896-3 0  9991,2 55305  70.0002  23.1035 0002825 265.8044  94.2792 14.98317208 45048,6950.232,96.108,574.061,570.134,0.0
55305.0,STARLINK-5316,PAYLOAD,2023-11-05 05:18:54,14.98322287,0.0003471,69.9999,21.5886,267.4072,92.669,6.4316e-05,6.74e-06,0.0,0 STARLINK-5316,1 55305U 23010AN  23309.22146787  .00000674  00000-0  64316-4 0  9999,2 55305  69.9999  21.5886 0003471 267.4072  92.6690 14.98322287 44819,6950.217,96.107,574.494,569.669,0.0
55305.0,STARLINK-5316,PAYLOAD,2023-11-05 11:43:25,14.98340724,0.0002721,70.0006,20.9162,265.5523,94.5325,0.00021341,2.455e-05,0.0,0 STARLINK-5316,1 55305U 23010AN  23309.48849256  .00002455  00000-0  21341-3 0  9997,2 55305  70.0006  20.9162 0002721 265.5523  94.5325 14.98340724 44854,6950.16,96.106,573.916,570.134,0.0
55305.0,STARLINK-5316,PAYLOAD,2023-11-05 13:19:33,14.98342767,0.0002832,69.9999,20.7476,267.2549,92.8286,0.00021229,2.442e-05,0.0,0 STARLINK-5316,1 55305U 23010AN  23309.55525107  .00002442  00000-0  21229-3 0  9992,2 55305  69.9999  20.7476 0002832 267.2549  92.8286 14.98342767 45181,6950.153,96.106,573.987,570.05,0.0
55305.0,STARLINK-5316,PAYLOAD,2023-11-05 14:55:41,14.9834391,0.0002697,70.0009,20.5803,264.9735,95.1117,0.0002178,2.508e-05,0.0,0 STARLINK-5316,1 55305U 23010AN  23309.62200973  .00002508  00000-0  21780-3 0  9996,2 55305  70.0009  20.5803 0002697 264.9735  95.1117 14.98343910 45199,6950.15,96.106,573.889,570.14,0.0
55305.0,STARLINK-5316,PAYLOAD,2023-11-06 11:45:20,14.98413337,0.0003128,69.9999,18.3895,263.884,96.1962,0.00093581,0.00011115,0.0,0 STARLINK-5316,1 55305U 23010AN  23310.48982388  .00011115  00000-0  93581-3 0  9991,2 55305  69.9999  18.3895 0003128 263.8840  96.1962 14.98413337 45005,6949.935,96.102,573.974,569.626,0.0
55305.0,STARLINK-5316,PAYLOAD,2023-11-06 13:21:33,14.98363536,0.0002262,69.9999,18.2216,252.8194,107.2717,1.7624e-05,1.18e-06,0.0,0 STARLINK-5316,1 55305U 23010AN  23310.55663561  .00000118  00000-0  17624-4 0  9994,2 55305  69.9999  18.2216 0002262 252.8194 107.2717 14.98363536 45332,6950.089,96.105,573.526,570.382,0.0
55305.0,STARLINK-5316,PAYLOAD,2023-11-06 14:57:41,14.98352419,0.0001983,70.0014,18.0559,241.5505,118.5455,0.00010808,1.198e-05,0.0,0 STARLINK-5316,1 55305U 23010AN  23310.62340010  .00001198  00000-0  10808-3 0  9998,2 55305  70.0014  18.0559 0001983 241.5505 118.5455 14.98352419 45029,6950.124,96.106,573.367,570.61,0.0
55305.0,STARLINK-5316,PAYLOAD,2023-11-06 21:22:16,14.98312066,0.0002613,69.9999,17.3801,283.7301,76.3567,-0.00011388,-1.451e-05,0.0,0 STARLINK-5316,1 55305U 23010AN  23310.89047325 -.00001451  00000-0 -11388-3 0  9998,2 55305  69.9999  17.3801 0002613 283.7301  76.3567 14.98312066 45381,6950.248,96.108,573.929,570.297,0.0
55305.0,STARLINK-5316,PAYLOAD,2023-11-07 11:47:31,14.98297026,0.0002828,70.0003,15.8659,274.5369,85.5467,-0.00052677,-6.367e-05,0.0,0 STARLINK-5316,1 55305U 23010AN  23311.49134116 -.00006367  00000-0 -52677-3 0  9997,2 55305  70.0003  15.8659 0002828 274.5369  85.5467 14.98297026 45158,6950.295,96.109,574.125,570.194,0.0
55305.0,STARLINK-5316,PAYLOAD,2023-11-07 13:23:39,14.98298382,0.0002765,70.0005,15.6983,272.8187,87.2656,-0.00050308,-6.085e-05,0.0,0 STARLINK-5316,1 55305U 23010AN  23311.55810072 -.00006085  00000-0 -50308-3 0  9992,2 55305  70.0005  15.6983 0002765 272.8187  87.2656 14.98298382 45488,6950.291,96.109,574.077,570.234,0.0
55305.0,STARLINK-5316,PAYLOAD,2023-11-07 21:24:18,14.98327895,0.0002972,70.0002,14.8558,278.8924,81.1898,-0.00052444,-6.345e-05,0.0,0 STARLINK-5316,1 55305U 23010AN  23311.89188574 -.00006345  00000-0 -52444-3 0  9996,2 55305  70.0002  14.8558 0002972 278.8924  81.1898 14.98327895 45213,6950.199,96.107,574.13,569.999,0.0
55305.0,STARLINK-5316,PAYLOAD,2023-11-08 11:49:29,14.98339184,0.0002842,70.0002,13.3409,271.3195,88.7639,2.655e-05,2.24e-06,0.0,0 STARLINK-5316,1 55305U 23010AN  23312.49270554  .00000224  00000-0  26550-4 0  9991,2 55305  70.0002  13.3409 0002842 271.3195  88.7639 14.98339184 45306,6950.164,96.106,574.005,570.054,0.0
55305.0,STARLINK-5316,PAYLOAD,2023-11-08 13:25:37,14.98343522,0.0002898,70.0002,13.1726,277.7886,82.2944,4.2125e-05,4.1e-06,0.0,0 STARLINK-5316,1 55305U 23010AN  23312.55946278  .00000410  00000-0  42125-4 0  9994,2 55305  70.0002  13.1726 0002898 277.7886  82.2944 14.98343522 45639,6950.151,96.106,574.03,570.002,0.0
55305.0,STARLINK-5316,PAYLOAD,2023-11-08 21:26:17,14.98364879,0.0002915,70.0008,12.3318,278.4856,81.5973,-0.00033603,-4.104e-05,0.0,0 STARLINK-5316,1 55305U 23010AN  23312.89325564 -.00004104  00000-0 -33603-3 0  9996,2 55305  70.0008  12.3318 0002915 278.4856  81.5973 14.98364879 45685,6950.085,96.105,573.976,569.924,0.0
